ONEWEB-0501             
1 54119U 22138G   23338.82222025 -.00000001  00000+0 -35465-4 0  9997
2 54119  87.9182 129.1614 0000858 103.1846 256.9383 13.19725600 54756
ONEWEB-0502             
1 54120U 22138H   23338.50472702  .00000151  00000+0  34468-3 0  9998
2 54120  87.9180 129.2162 0001111  93.8413 266.2847 13.19727420 54732
ONEWEB-0503             
1 54121U 22138J   23338.41785842  .00000092  00000+0  19668-3 0  9990
2 54121  87.9179 129.2414 0001707  84.1477 275.9850 13.19726771 54712
ONEWEB-0504             
1 54122U 22138K   23338.48102256  .00000007  00000+0 -14246-4 0  9995
2 54122  87.9182 129.2300 0001150  83.0682 277.0581 13.19727951 54736
ONEWEB-0505             
1 54123U 22138L   23338.47787553  .00000105  00000+0  23090-3 0  9998
2 54123  87.9180 129.2280 0000657  94.3798 265.7410 13.19727378 54712
ONEWEB-0506             
1 54124U 22138M   23338.83166964  .00001995  00000+0  49487-2 0  9991
2 54124  87.9194 129.1523 0000944 105.7369 254.3868 13.19737436 54758
ONEWEB-0507             
1 54125U 22138N   23338.47314424  .00000155  00000+0  35422-3 0  9990
2 54125  87.9189 129.2305 0001209 101.5058 258.6210 13.19727027 54759
ONEWEB-0508             
1 54126U 22138P   23338.46998370  .00000148  00000+0  33749-3 0  9990
2 54126  87.9180 129.2324 0000968 100.8932 259.2309 13.19726071 54738
